BEIDOU-2 IGSO-5         
1 37948U 11073A   26183.72937883 -.00000128  00000+0  00000+0 0  9990
2 37948  47.6496 271.3544 0114527 222.0502 141.5350  1.00270596 53296
LUCH-5A                 
1 37951U 11074B   26184.89885795 -.00000042  00000+0  00000+0 0  9993
2 37951   8.7934  73.5644 0002674  45.4780 293.4090  1.00272716 53218
BEIDOU-2 G5             
1 38091U 12008A   26185.16257712  .00000068  00000+0  00000+0 0  9997
2 38091   3.6136  69.5972 0007640 275.3916  54.4886  1.00268129 52539
BEIDOU-2 M3             
1 38250U 12018A   26183.22352373 -.00000064  00000+0  00000+0 0  9996
2 38250  55.7439 304.3684 0020578 273.0142  86.7629  1.86230266 96223
BEIDOU-2 M4             
1 38251U 12018B   26182.08192837 -.00000069  00000+0  00000+0 0  9992
2 38251  55.6447 303.6195 0011579 274.1308  85.7452  1.86229794 96203
SES-5                   
1 38652U 12036A   26183.65487642  .00000044  00000+0  00000+0 0  9994
2 38652   0.0450 320.1883 0002267 138.1529  63.0821  1.00270830 44612
BEIDOU-2 M6             
1 38775U 12050B   26183.40249258 -.00000038  00000+0  00000+0 0  9992
2 38775  56.5573  62.3914 0013275 359.5324   0.5356  1.86231039 93595
GSAT-10                 
1 38779U 12051B   26185.16734381 -.00000152  00000+0  00000+0 0  9995
2 38779   0.0468 242.6878 0008020 211.0647 331.6795  1.00270143 50267
NAVSTAR 67 (USA 239)    
1 38833U 12053A   26184.76887401  .00000053  00000+0  00000+0 0  9994
2 38833  53.5884 142.9202 0181294  66.0231 295.8302  2.00567791 99771
GSAT0103 (GALILEO-FM3)  
1 38857U 12055A   26184.31354362 -.00000005  00000+0  00000+0 0  9996
2 38857  55.8153 101.1032 0004104 308.8559  51.1196  1.70473430 85280
BEIDOU-2 G6             
1 38953U 12059A   26185.09618497 -.00000165  00000+0  00000+0 0  9992
2 38953   4.4619  73.3459 0009383 330.0106 357.3906  1.00270137 50077
LUCH-5B                 
1 38977U 12061A   26184.93383547 -.00000129  00000+0  00000+0 0  9998
2 38977  10.5177  49.7133 0003130 136.3133  55.8672  1.00272490 49776
COSMOS 2485 [GLONASS-M] 
1 39155U 13019A   26179.64150049 -.00000037  00000+0  00000+0 0  9990
2 39155  65.4258  73.2198 0022897 232.6425 127.1980  2.13103400102529
NAVSTAR 68 (USA 242)    
1 39166U 13023A   26185.13488471 -.00000010  00000+0  00000+0 0  9992
2 39166  54.4910 268.2829 0141421  51.0912 310.2310  2.00563447 96228
IRNSS-1A                
1 39199U 13034A   26184.73411578  .00000069  00000+0  00000+0 0  9992
2 39199  35.7564  63.6330 0017846 181.6829 355.8200  1.00279824 47530
NAVSTAR 69 (USA 248)    
1 39533U 14008A   26184.63806660  .00000058  00000+0  00000+0 0  9993
2 39533  53.6567 148.6489 0084200 231.4631 127.7489  2.00560889 90017
ASTRA 5B                
1 39617U 14011B   26183.85175605  .00000148  00000+0  00000+0 0  9991
2 39617   0.0771 302.4799 0002214 165.1332 143.4211  1.00274657 44823
COSMOS 2492 [GLONASS-M] 
1 39620U 14012A   26183.35442912 -.00000049  00000+0  00000+0 0  9990
2 39620  65.2879 313.4204 0010245 321.1510  38.7779  2.13103547 95563
IRNSS-1B                
1 39635U 14017A   26184.73411578  .00000139  00000+0  00000+0 0  9997
2 39635  28.8962 240.1173 0022907 194.5837 166.3850  1.00272129 44964
LUCH-5V                 
1 39727U 14023A   26185.12266756 -.00000258  00000+0  00000+0 0  9999
2 39727   5.1723  69.5771 0002665  59.2281 292.2227  1.00269372 44520
NAVSTAR 70 (USA 251)    
1 39741U 14026A   26184.41525079 -.00000073  00000+0  00000+0 0  9990
2 39741  56.4897 330.8861 0038108 326.1477  33.6082  2.00559924 88862
COSMOS 2500 [GLONASS-M] 
1 40001U 14032A   26184.93175924 -.00000044  00000+0  00000+0 0  9993
2 40001  65.2222 313.1126 0007864 187.8325 172.1641  2.13106144 93817
NAVSTAR 71 (USA 256)    
1 40105U 14045A   26183.01128841 -.00000018  00000+0  00000+0 0  9997
2 40105  55.3623  87.8744 0033958 118.3288 242.0466  2.00559500 86377
GSAT0201 (GALILEO 5)    
1 40128U 14050A   26180.27461735 -.00000039  00000+0  00000+0 0  9998
2 40128  48.8619 272.9404 1676251 179.8513 180.2703  1.85520280 78549
GSAT0202 (GALILEO 6)    
1 40129U 14050B   26181.60808378 -.00000031  00000+0  00000+0 0  9997
2 40129  48.8773 271.9714 1677698 180.6428 179.1780  1.85520713 80732
IRNSS-1C                
1 40269U 14061A   26184.84762035 -.00000153  00000+0  00000+0 0  9997
2 40269   6.5591  88.6133 0022113   4.2627 217.1101  1.00274140 42859
NAVSTAR 72 (USA 258)    
1 40294U 14068A   26183.37856302 -.00000059  00000+0  00000+0 0  9995
2 40294  56.9979  30.3698 0067370  71.1337 289.6561  2.00577219 85519
COSMOS 2501 [GLONASS-K] 
1 40315U 14075A   26184.72474527  .00000088  00000+0  00000+0 0  9993
2 40315  63.6177 189.7996 0022655 212.6869 147.1965  2.13101469 90209
NAVSTAR 73 (USA 260)    
1 40534U 15013A   26184.51642840  .00000072  00000+0  00000+0 0  9994
2 40534  53.1670 203.5022 0109961  40.2634 320.5907  2.00550436 82156
GSAT0203 (GALILEO 7)    
1 40544U 15017A   26184.63712330 -.00000075  00000+0  00000+0 0  9998
2 40544  56.7810 341.1480 0002384 260.5920  99.3760  1.70476291 69486
GSAT0204 (GALILEO 8)    
1 40545U 15017B   26184.89295947 -.00000075  00000+0  00000+0 0  9997
2 40545  56.7875 341.1595 0002511 234.9611 125.0108  1.70475823 32538
