OBJECT_NAME,OBJECT_ID,EPOCH,MEAN_MOTION,ECCENTRICITY,INCLINATION,RA_OF_ASC_NODE,ARG_OF_PERICENTER,MEAN_ANOMALY,EPHEMERIS_TYPE,CLASSIFICATION_TYPE,NORAD_CAT_ID,ELEMENT_SET_NO,REV_AT_EPOCH,BSTAR,MEAN_MOTION_DOT,MEAN_MOTION_DDOT
BEIDOU-2 IGSO-5 (C10),2011-073A,2026-07-02T17:30:18.330912,1.00270596,.01145273,47.6496,271.3544,222.0502,141.5350,0,U,37948,999,5329,0,-.128E-5,0
LUCH 5A (SDCM/PRN 140),2011-074B,2026-07-03T21:34:21.326880,1.00272716,.00026749,8.7934,73.5644,45.4780,293.4090,0,U,37951,999,5321,0,-.42E-6,0
BEIDOU-2 G5 (C05),2012-008A,2026-07-04T03:54:06.663168,1.00268129,.00076401,3.6136,69.5972,275.3916,54.4886,0,U,38091,999,5253,0,.68E-6,0
BEIDOU-2 M3 (C11),2012-018A,2026-07-02T05:21:52.450272,1.86230266,.00205781,55.7439,304.3684,273.0142,86.7629,0,U,38250,999,9622,0,-.64E-6,0
BEIDOU-2 M4 (C12),2012-018B,2026-07-01T01:57:58.611168,1.86229794,.00115796,55.6447,303.6195,274.1308,85.7452,0,U,38251,999,9620,0,-.69E-6,0
SES-5 (EGNOS/PRN 136),2012-036A,2026-07-02T15:43:01.322688,1.00270830,.00022676,0.0450,320.1883,138.1529,63.0821,0,U,38652,999,4461,0,.44E-6,0
BEIDOU-2 M6 (C14),2012-050B,2026-07-02T09:39:35.358912,1.86231039,.00132752,56.5573,62.3914,359.5324,0.5356,0,U,38775,999,9359,0,-.38E-6,0
GSAT-10 (GAGAN/PRN 128),2012-051B,2026-07-04T04:00:58.505184,1.00270143,.00080208,0.0468,242.6878,211.0647,331.6795,0,U,38779,999,5026,0,-.152E-5,0
GPS BIIF-3  (PRN 24),2012-053A,2026-07-03T18:27:10.714464,2.00567791,.0181294,53.5884,142.9202,66.0231,295.8302,0,U,38833,999,9977,0,.53E-6,0
GSAT0103 (GALILEO-FM3),2012-055A,2026-07-03T07:31:30.168768,1.70473430,.00041045,55.8153,101.1032,308.8559,51.1196,0,U,38857,999,8528,0,-.5E-7,0
BEIDOU-2 G6 (C02),2012-059A,2026-07-04T02:18:30.381408,1.00270137,.00093839,4.4619,73.3459,330.0106,357.3906,0,U,38953,999,5007,0,-.165E-5,0
LUCH 5B (SDCM/PRN 125),2012-061A,2026-07-03T22:24:43.384608,1.00272490,.00031304,10.5177,49.7133,136.3133,55.8672,0,U,38977,999,4977,0,-.129E-5,0
COSMOS 2485 (747),2013-019A,2026-06-28T15:23:45.642336,2.13103400,.00228978,65.4258,73.2198,232.6425,127.1980,0,U,39155,999,10252,0,-.37E-6,0
GPS BIIF-4  (PRN 27),2013-023A,2026-07-04T03:14:14.038944,2.00563447,.01414218,54.4910,268.2829,51.0912,310.2310,0,U,39166,999,9622,0,-.1E-6,0
IRNSS-1A,2013-034A,2026-07-03T17:37:07.603392,1.00279824,.0017846,35.7564,63.6330,181.6829,355.8200,0,U,39199,999,4753,0,.69E-6,0
GPS BIIF-5  (PRN 30),2014-008A,2026-07-03T15:18:48.954240,2.00560889,.00842001,53.6567,148.6489,231.4631,127.7489,0,U,39533,999,9001,0,.58E-6,0
ASTRA 5B (EGNOS/PRN 123),2014-011B,2026-07-02T20:26:31.722720,1.00274657,.00022147,0.0771,302.4799,165.1332,143.4211,0,U,39617,999,4482,0,.148E-5,0
COSMOS 2492 (754),2014-012A,2026-07-02T08:30:22.675968,2.13103547,.00102459,65.2879,313.4204,321.1510,38.7779,0,U,39620,999,9556,0,-.49E-6,0
IRNSS-1B,2014-017A,2026-07-03T17:37:07.603392,1.00272129,.00229079,28.8962,240.1173,194.5837,166.3850,0,U,39635,999,4496,0,.139E-5,0
LUCH 5V (SDCM/PRN 141),2014-023A,2026-07-04T02:56:38.477184,1.00269372,.00026656,5.1723,69.5771,59.2281,292.2227,0,U,39727,999,4452,0,-.258E-5,0
GPS BIIF-6  (PRN 06),2014-026A,2026-07-03T09:57:57.668256,2.00559924,.00381084,56.4897,330.8861,326.1477,33.6082,0,U,39741,999,8886,0,-.73E-6,0
COSMOS 2500 (755),2014-032A,2026-07-03T22:21:43.998336,2.13106144,.00078642,65.2222,313.1126,187.8325,172.1641,0,U,40001,999,9381,0,-.44E-6,0
GPS BIIF-7  (PRN 09),2014-045A,2026-07-02T00:16:15.318624,2.00559500,.00339585,55.3623,87.8744,118.3288,242.0466,0,U,40105,999,8637,0,-.18E-6,0
GSAT0201 (GALILEO 5),2014-050A,2026-06-29T06:35:26.939040,1.85520280,.16762517,48.8619,272.9404,179.8513,180.2703,0,U,40128,999,7854,0,-.39E-6,0
GSAT0202 (GALILEO 6),2014-050B,2026-06-30T14:35:38.438592,1.85520713,.16776984,48.8773,271.9714,180.6428,179.1780,0,U,40129,999,8073,0,-.31E-6,0
IRNSS-1C,2014-061A,2026-07-03T20:20:34.398240,1.00274140,.00221138,6.5591,88.6133,4.2627,217.1101,0,U,40269,999,4285,0,-.153E-5,0
GPS BIIF-8  (PRN 03),2014-068A,2026-07-02T09:05:07.844928,2.00577219,.00673707,56.9979,30.3698,71.1337,289.6561,0,U,40294,999,8551,0,-.59E-6,0
COSMOS 2501 (702K),2014-075A,2026-07-03T17:23:37.991328,2.13101469,.00226558,63.6177,189.7996,212.6869,147.1965,0,U,40315,999,9020,0,.88E-6,0
GPS BIIF-9  (PRN 26),2015-013A,2026-07-03T12:23:39.413760,2.00550436,.01099612,53.1670,203.5022,40.2634,320.5907,0,U,40534,999,8215,0,.72E-6,0
GSAT0203 (GALILEO 7),2015-017A,2026-07-03T15:17:27.453120,1.70476291,.00023847,56.7810,341.1480,260.5920,99.3760,0,U,40544,999,6948,0,-.75E-6,0
GSAT0204 (GALILEO 8),2015-017B,2026-07-03T21:25:51.698208,1.70475823,.00025112,56.7875,341.1595,234.9611,125.0108,0,U,40545,999,3253,0,-.75E-6,0
